{
  "norad_id": 51895,
  "name": "STARLINK-3594",
  "history": [
    {
      "epoch": "2026-03-28T19:26:43.707840Z",
      "apogee_km": 540.871331902772,
      "perigee_km": 538.614027763243,
      "latitude_deg": 5.613540484429383e-05,
      "longitude_deg": 155.37689259011094,
      "height_km": 540.7429777063259,
      "semi_major_axis_km": 6917.879679833008,
      "eccentricity": 0.00016315,
      "inclination_deg": 53.2173,
      "raan_deg": 273.2843,
      "arg_perigee_deg": 95.3372,
      "mean_anomaly_deg": 264.7807,
      "mean_motion_rev_day": 15.08840232
    },
    {
      "epoch": "2026-03-29T04:59:02.375232Z",
      "apogee_km": 540.8569447077825,
      "perigee_km": 538.6100203750539,
      "latitude_deg": -4.7751041240275264e-05,
      "longitude_deg": 10.123301536052091,
      "height_km": 540.7239262834744,
      "semi_major_axis_km": 6917.870482541418,
      "eccentricity": 0.0001624,
      "inclination_deg": 53.2178,
      "raan_deg": 271.5003,
      "arg_perigee_deg": 94.8533,
      "mean_anomaly_deg": 265.2644,
      "mean_motion_rev_day": 15.08843241
    },
    {
      "epoch": "2026-03-30T04:49:50.059776Z",
      "apogee_km": 540.9315226486851,
      "perigee_km": 538.5697558086522,
      "latitude_deg": 2.1703148930841897e-05,
      "longitude_deg": 6.984224008873324,
      "height_km": 540.6670409981889,
      "semi_major_axis_km": 6917.887639228668,
      "eccentricity": 0.0001707,
      "inclination_deg": 53.2188,
      "raan_deg": 267.0392,
      "arg_perigee_deg": 91.0209,
      "mean_anomaly_deg": 269.0979,
      "mean_motion_rev_day": 15.08837628
    },
    {
      "epoch": "2026-03-30T04:49:50.060640Z",
      "apogee_km": 540.931315112055,
      "perigee_km": 538.5699633452814,
      "latitude_deg": 2.446053681583193e-05,
      "longitude_deg": 6.984222449102412,
      "height_km": 540.6670373025382,
      "semi_major_axis_km": 6917.887639228668,
      "eccentricity": 0.00017067,
      "inclination_deg": 53.2188,
      "raan_deg": 267.0392,
      "arg_perigee_deg": 91.0209,
      "mean_anomaly_deg": 269.0979,
      "mean_motion_rev_day": 15.08837628
    },
    {
      "epoch": "2026-03-30T20:43:41.442240Z",
      "apogee_km": 540.8217008171505,
      "perigee_km": 538.6730059369911,
      "latitude_deg": -6.117034115542177e-06,
      "longitude_deg": 124.89331900155916,
      "height_km": 540.6312207363854,
      "semi_major_axis_km": 6917.8843533770705,
      "eccentricity": 0.0001553,
      "inclination_deg": 53.2172,
      "raan_deg": 264.0653,
      "arg_perigee_deg": 89.3841,
      "mean_anomaly_deg": 270.7329,
      "mean_motion_rev_day": 15.08838703
    },
    {
      "epoch": "2026-03-31T17:23:42.086688Z",
      "apogee_km": 540.7890719948145,
      "perigee_km": 538.6984884230351,
      "latitude_deg": -2.1780973951441535e-05,
      "longitude_deg": 170.17656613708272,
      "height_km": 540.6466563673304,
      "semi_major_axis_km": 6917.880780208924,
      "eccentricity": 0.0001511,
      "inclination_deg": 53.2169,
      "raan_deg": 260.2,
      "arg_perigee_deg": 90.4073,
      "mean_anomaly_deg": 269.7092,
      "mean_motion_rev_day": 15.08839872
    },
    {
      "epoch": "2026-04-01T17:14:29.162112Z",
      "apogee_km": 540.825497919086,
      "perigee_km": 538.6574348077284,
      "latitude_deg": 2.6796416275867227e-05,
      "longitude_deg": 167.04051867546235,
      "height_km": 540.6221879460091,
      "semi_major_axis_km": 6917.878466363407,
      "eccentricity": 0.0001567,
      "inclination_deg": 53.2167,
      "raan_deg": 255.7394,
      "arg_perigee_deg": 89.2274,
      "mean_anomaly_deg": 270.8898,
      "mean_motion_rev_day": 15.08840629
    },
    {
      "epoch": "2026-04-02T20:16:02.179488Z",
      "apogee_km": 540.8122395097889,
      "perigee_km": 538.6430738680374,
      "latitude_deg": 1.8273421573826046e-05,
      "longitude_deg": 115.48762914074642,
      "height_km": 540.6374242002696,
      "semi_major_axis_km": 6917.864656688913,
      "eccentricity": 0.00015678,
      "inclination_deg": 53.217,
      "raan_deg": 250.684,
      "arg_perigee_deg": 90.7605,
      "mean_anomaly_deg": 269.3567,
      "mean_motion_rev_day": 15.08845147
    },
    {
      "epoch": "2026-04-03T20:06:50.030784Z",
      "apogee_km": 540.6803013806348,
      "perigee_km": 538.846781021195,
      "latitude_deg": -5.886948674659326e-05,
      "longitude_deg": 112.34644532397212,
      "height_km": 540.7130935528864,
      "semi_major_axis_km": 6917.900541200915,
      "eccentricity": 0.00013252,
      "inclination_deg": 53.2169,
      "raan_deg": 246.2216,
      "arg_perigee_deg": 93.367,
      "mean_anomaly_deg": 266.7473,
      "mean_motion_rev_day": 15.08833407
    },
    {
      "epoch": "2026-04-05T13:26:51.588384Z",
      "apogee_km": 540.6614261734248,
      "perigee_km": 538.8774364629171,
      "latitude_deg": -4.267677790302458e-05,
      "longitude_deg": -157.08795205275837,
      "height_km": 540.7282310971162,
      "semi_major_axis_km": 6917.906431318171,
      "eccentricity": 0.00012894,
      "inclination_deg": 53.2174,
      "raan_deg": 238.4912,
      "arg_perigee_deg": 94.0494,
      "mean_anomaly_deg": 266.0645,
      "mean_motion_rev_day": 15.0883148
    },
    {
      "epoch": "2026-04-05T15:02:14.787456Z",
      "apogee_km": 540.6572576562257,
      "perigee_km": 538.8835062034987,
      "latitude_deg": -5.8226609836763974e-05,
      "longitude_deg": 178.70268362417815,
      "height_km": 540.7253081869269,
      "semi_major_axis_km": 6917.907381929862,
      "eccentricity": 0.0001282,
      "inclination_deg": 53.2174,
      "raan_deg": 238.1938,
      "arg_perigee_deg": 93.8212,
      "mean_anomaly_deg": 266.2926,
      "mean_motion_rev_day": 15.08831169
    }
  ]
}